start=new Date('2022-10-15T00:00:00.000Z').valueOf();
sats=[{"MEAN_ANOMALY":"251.8701","OBJECT_ID":"2021-009G","CLASSIFICATION_TYPE":"U","PERIOD":"95.592","DECAY_DATE":null,"SEMIMAJOR_AXIS":"6925.353","ELEMENT_SET_NO":"999","MEAN_MOTION_DDOT":"0.0000000000000","EPHEMERIS_TYPE":"0","EPOCH":"2022-10-14T11:34:15.531744","COUNTRY_CODE":"US","OBJECT_NAME":"STARLINK-1953","REV_AT_EPOCH":"9342","TLE_LINE2":"2 47554  53.0545 208.0993 0001158 108.2414 251.8701 15.06398603 93428","NORAD_CAT_ID":"47554","MEAN_MOTION":"15.06398603","FILE":"3611991","ARG_OF_PERICENTER":"108.2414","INCLINATION":"53.0545","MEAN_MOTION_DOT":"0.00001039","PERIAPSIS":"546.416","REF_FRAME":"TEME","MEAN_ELEMENT_THEORY":"SGP4","LAUNCH_DATE":"2021-02-04","TLE_LINE1":"1 47554U 21009G   22287.48212421  .00001039  00000-0  88655-4 0  9991","BSTAR":"0.00008865500000","TIME_SYSTEM":"UTC","RCS_SIZE":"LARGE","CENTER_NAME":"EARTH","OBJECT_TYPE":"PAYLOAD","SITE":"AFETR","GP_ID":"215100852","RA_OF_ASC_NODE":"208.0993","APOAPSIS":"548.020","ECCENTRICITY":"0.00011580"},{"TLE_LINE1":"1 47555U 21009H   22287.45724303 -.00000160  00000-0  81419-5 0  9993","LAUNCH_DATE":"2021-02-04","MEAN_ELEMENT_THEORY":"SGP4","REF_FRAME":"TEME","PERIAPSIS":"546.225","ECCENTRICITY":"0.00014150","APOAPSIS":"548.185","GP_ID":"215101102","RA_OF_ASC_NODE":"198.2129","SITE":"AFETR","OBJECT_TYPE":"PAYLOAD","CENTER_NAME":"EARTH","RCS_SIZE":"LARGE","TIME_SYSTEM":"UTC","BSTAR":"0.00000814190000","ELEMENT_SET_NO":"999","MEAN_MOTION_DDOT":"0.0000000000000","SEMIMAJOR_AXIS":"6925.340","DECAY_DATE":null,"PERIOD":"95.592","CLASSIFICATION_TYPE":"U","MEAN_ANOMALY":"241.4332","OBJECT_ID":"2021-009H","MEAN_MOTION_DOT":"-0.00000160","ARG_OF_PERICENTER":"118.6800","INCLINATION":"53.0554","FILE":"3611991","MEAN_MOTION":"15.06402735","NORAD_CAT_ID":"47555","TLE_LINE2":"2 47555  53.0554 198.2129 0001415 118.6800 241.4332 15.06402735 93562","OBJECT_NAME":"STARLINK-1954","REV_AT_EPOCH":"9356","COUNTRY_CODE":"US","EPHEMERIS_TYPE":"0","EPOCH":"2022-10-14T10:58:25.797792"},{"OBJECT_TYPE":"PAYLOAD","SITE":"AFETR","RA_OF_ASC_NODE":"219.2595","GP_ID":"215043175","APOAPSIS":"548.124","ECCENTRICITY":"0.00013240","BSTAR":"0.00013466000000","TIME_SYSTEM":"UTC","RCS_SIZE":"LARGE","CENTER_NAME":"EARTH","MEAN_ELEMENT_THEORY":"SGP4","LAUNCH_DATE":"2021-02-04","TLE_LINE1":"1 47556U 21009J   22287.22687678  .00001725  00000-0  13466-3 0  9994","PERIAPSIS":"546.290","REF_FRAME":"TEME","NORAD_CAT_ID":"47556","MEAN_MOTION":"15.06402145","FILE":"3610198","ARG_OF_PERICENTER":"86.1534","INCLINATION":"53.0529","MEAN_MOTION_DOT":"0.00001725","EPHEMERIS_TYPE":"0","EPOCH":"2022-10-14T05:26:42.153792","COUNTRY_CODE":"US","REV_AT_EPOCH":"9384","OBJECT_NAME":"STARLINK-1955","TLE_LINE2":"2 47556  53.0529 219.2595 0001324  86.1534 273.9606 15.06402145 93848","PERIOD":"95.592","DECAY_DATE":null,"SEMIMAJOR_AXIS":"6925.342","ELEMENT_SET_NO":"999","MEAN_MOTION_DDOT":"0.0000000000000","OBJECT_ID":"2021-009J","MEAN_ANOMALY":"273.9606","CLASSIFICATION_TYPE":"U"},{"SITE":"AFETR","OBJECT_TYPE":"PAYLOAD","APOAPSIS":"548.165","RA_OF_ASC_NODE":"219.1064","GP_ID":"215100101","ECCENTRICITY":"0.00013630","BSTAR":"0.00014332000000","RCS_SIZE":"LARGE","TIME_SYSTEM":"UTC","CENTER_NAME":"EARTH","MEAN_ELEMENT_THEORY":"SGP4","TLE_LINE1":"1 47557U 21009K   22287.25636808  .00001854  00000-0  14332-3 0  9993","LAUNCH_DATE":"2021-02-04","PERIAPSIS":"546.278","REF_FRAME":"TEME","NORAD_CAT_ID":"47557","MEAN_MOTION":"15.06397390","INCLINATION":"53.0546","ARG_OF_PERICENTER":"80.3917","FILE":"3611991","MEAN_MOTION_DOT":"0.00001854","COUNTRY_CODE":"US","EPHEMERIS_TYPE":"0","EPOCH":"2022-10-14T06:09:10.202112","OBJECT_NAME":"STARLINK-1956","REV_AT_EPOCH":"9325","TLE_LINE2":"2 47557  53.0546 219.1064 0001363  80.3917 279.7226 15.06397390 93254","DECAY_DATE":null,"PERIOD":"95.592","SEMIMAJOR_AXIS":"6925.357","MEAN_MOTION_DDOT":"0.0000000000000","ELEMENT_SET_NO":"999","OBJECT_ID":"2021-009K","MEAN_ANOMALY":"279.7226","CLASSIFICATION_TYPE":"U"},{"BSTAR":"0.00002677300000","RCS_SIZE":"LARGE","TIME_SYSTEM":"UTC","CENTER_NAME":"EARTH","SITE":"AFETR","OBJECT_TYPE":"PAYLOAD","APOAPSIS":"548.279","GP_ID":"215141793","RA_OF_ASC_NODE":"186.2390","ECCENTRICITY":"0.00015290","PERIAPSIS":"546.161","REF_FRAME":"TEME","MEAN_ELEMENT_THEORY":"SGP4","TLE_LINE1":"1 47558U 21009L   22287.90048664  .00000117  00000-0  26773-4 0  9997","LAUNCH_DATE":"2021-02-04","COUNTRY_CODE":"US","EPHEMERIS_TYPE":"0","EPOCH":"2022-10-14T21:36:42.045696","OBJECT_NAME":"STARLINK-1957","REV_AT_EPOCH":"9376","TLE_LINE2":"2 47558  53.0565 186.2390 0001529  79.3464 280.7697 15.06397853 93765","NORAD_CAT_ID":"47558","MEAN_MOTION":"15.06397853","INCLINATION":"53.0565","ARG_OF_PERICENTER":"79.3464","FILE":"3612869","MEAN_MOTION_DOT":"0.00000117","MEAN_ANOMALY":"280.7697","OBJECT_ID":"2021-009L","CLASSIFICATION_TYPE":"U","DECAY_DATE":null,"PERIOD":"95.592","SEMIMAJOR_AXIS":"6925.355","ELEMENT_SET_NO":"999","MEAN_MOTION_DDOT":"0.0000000000000"},{"PERIAPSIS":"546.207","REF_FRAME":"TEME","MEAN_ELEMENT_THEORY":"SGP4","TLE_LINE1":"1 47559U 21009M   22287.86454432  .00004070  00000-0  29188-3 0  9991","LAUNCH_DATE":"2021-02-04","BSTAR":"0.00029188000000","RCS_SIZE":"LARGE","TIME_SYSTEM":"UTC","CENTER_NAME":"EARTH","SITE":"AFETR","OBJECT_TYPE":"PAYLOAD","APOAPSIS":"548.161","GP_ID":"215142544","RA_OF_ASC_NODE":"176.3987","ECCENTRICITY":"0.00014110","OBJECT_ID":"2021-009M","MEAN_ANOMALY":"261.1185","CLASSIFICATION_TYPE":"U","DECAY_DATE":null,"PERIOD":"95.592","SEMIMAJOR_AXIS":"6925.319","MEAN_MOTION_DDOT":"0.0000000000000","ELEMENT_SET_NO":"999","COUNTRY_CODE":"US","EPHEMERIS_TYPE":"0","EPOCH":"2022-10-14T20:44:56.629248","OBJECT_NAME":"STARLINK-1958","REV_AT_EPOCH":"9390","TLE_LINE2":"2 47559  53.0544 176.3987 0001411  98.9964 261.1185 15.06409569 93906","NORAD_CAT_ID":"47559","MEAN_MOTION":"15.06409569","ARG_OF_PERICENTER":"98.9964","INCLINATION":"53.0544","FILE":"3612869","MEAN_MOTION_DOT":"0.00004070"},{"BSTAR":"0.00028866000000","CENTER_NAME":"EARTH","TIME_SYSTEM":"UTC","RCS_SIZE":"LARGE","GP_ID":"215100352","RA_OF_ASC_NODE":"178.4887","APOAPSIS":"548.300","OBJECT_TYPE":"PAYLOAD","SITE":"AFETR","ECCENTRICITY":"0.00015770","REF_FRAME":"TEME","PERIAPSIS":"546.115","LAUNCH_DATE":"2021-02-04","TLE_LINE1":"1 47560U 21009N   22287.39180503  .00004021  00000-0  28866-3 0  9994","MEAN_ELEMENT_THEORY":"SGP4","EPHEMERIS_TYPE":"0","EPOCH":"2022-10-14T09:24:11.954592","COUNTRY_CODE":"US","TLE_LINE2":"2 47560  53.0541 178.4887 0001577 103.6835 256.4329 15.06402010 93834","REV_AT_EPOCH":"9383","OBJECT_NAME":"STARLINK-1959","MEAN_MOTION":"15.06402010","NORAD_CAT_ID":"47560","MEAN_MOTION_DOT":"0.00004021","FILE":"3611991","INCLINATION":"53.0541","ARG_OF_PERICENTER":"103.6835","MEAN_ANOMALY":"256.4329","OBJECT_ID":"2021-009N","CLASSIFICATION_TYPE":"U","PERIOD":"95.592","DECAY_DATE":null,"ELEMENT_SET_NO":"999","MEAN_MOTION_DDOT":"0.0000000000000","SEMIMAJOR_AXIS":"6925.342"},{"MEAN_ELEMENT_THEORY":"SGP4","LAUNCH_DATE":"2021-02-04","TLE_LINE1":"1 47561U 21009P   22287.44620170  .00006933  00000-0  48404-3 0  9994","PERIAPSIS":"546.397","REF_FRAME":"TEME","ECCENTRICITY":"0.00012450","OBJECT_TYPE":"PAYLOAD","SITE":"AFETR","GP_ID":"215100602","RA_OF_ASC_NODE":"198.2723","APOAPSIS":"548.122","TIME_SYSTEM":"UTC","RCS_SIZE":"LARGE","CENTER_NAME":"EARTH","BSTAR":"0.00048404000000","SEMIMAJOR_AXIS":"6925.394","ELEMENT_SET_NO":"999","MEAN_MOTION_DDOT":"0.0000000000000","PERIOD":"95.593","DECAY_DATE":null,"CLASSIFICATION_TYPE":"U","MEAN_ANOMALY":"242.9105","OBJECT_ID":"2021-009P","FILE":"3611991","INCLINATION":"53.0539","ARG_OF_PERICENTER":"117.2011","MEAN_MOTION_DOT":"0.00006933","NORAD_CAT_ID":"47561","MEAN_MOTION":"15.06385058","OBJECT_NAME":"STARLINK-1960","REV_AT_EPOCH":"9356","TLE_LINE2":"2 47561  53.0539 198.2723 0001245 117.2011 242.9105 15.06385058 93564","EPOCH":"2022-10-14T10:42:31.826880","EPHEMERIS_TYPE":"0","COUNTRY_CODE":"US"},{"TLE_LINE2":"2 47562  53.0537 198.2032 0001323  98.6185 261.4954 15.06410402 93567","REV_AT_EPOCH":"9356","OBJECT_NAME":"STARLINK-1961","COUNTRY_CODE":"US","EPHEMERIS_TYPE":"0","EPOCH":"2022-10-14T11:03:44.856576","MEAN_MOTION_DOT":"0.00004194","ARG_OF_PERICENTER":"98.6185","INCLINATION":"53.0537","FILE":"3611991","MEAN_MOTION":"15.06410402","NORAD_CAT_ID":"47562","CLASSIFICATION_TYPE":"U","OBJECT_ID":"2021-009Q","MEAN_ANOMALY":"261.4954","ELEMENT_SET_NO":"999","MEAN_MOTION_DDOT":"0.0000000000000","SEMIMAJOR_AXIS":"6925.317","DECAY_DATE":null,"PERIOD":"95.591","CENTER_NAME":"EARTH","RCS_SIZE":"LARGE","TIME_SYSTEM":"UTC","BSTAR":"0.00030020000000","ECCENTRICITY":"0.00013230","APOAPSIS":"548.098","GP_ID":"215100853","RA_OF_ASC_NODE":"198.2032","SITE":"AFETR","OBJECT_TYPE":"PAYLOAD","REF_FRAME":"TEME","PERIAPSIS":"546.265","TLE_LINE1":"1 47562U 21009Q   22287.46093584  .00004194  00000-0  30020-3 0  9992","LAUNCH_DATE":"2021-02-04","MEAN_ELEMENT_THEORY":"SGP4"},{"BSTAR":"0.00007348500000","TIME_SYSTEM":"UTC","RCS_SIZE":"LARGE","CENTER_NAME":"EARTH","OBJECT_TYPE":"PAYLOAD","SITE":"AFETR","RA_OF_ASC_NODE":"198.1124","GP_ID":"215101103","APOAPSIS":"548.119","ECCENTRICITY":"0.00013110","PERIAPSIS":"546.303","REF_FRAME":"TEME","MEAN_ELEMENT_THEORY":"SGP4","LAUNCH_DATE":"2021-02-04","TLE_LINE1":"1 47563U 21009R   22287.48304890  .00000813  00000-0  73485-4 0  9997","EPHEMERIS_TYPE":"0","EPOCH":"2022-10-14T11:35:35.424960","COUNTRY_CODE":"US","REV_AT_EPOCH":"9356","OBJECT_NAME":"STARLINK-1962","TLE_LINE2":"2 47563  53.0543 198.1124 0001311  91.0064 269.1075 15.06400895 93560","NORAD_CAT_ID":"47563","MEAN_MOTION":"15.06400895","FILE":"3611991","INCLINATION":"53.0543","ARG_OF_PERICENTER":"91.0064","MEAN_MOTION_DOT":"0.00000813","MEAN_ANOMALY":"269.1075","OBJECT_ID":"2021-009R","CLASSIFICATION_TYPE":"U","PERIOD":"95.592","DECAY_DATE":null,"SEMIMAJOR_AXIS":"6925.346","MEAN_MOTION_DDOT":"0.0000000000000","ELEMENT_SET_NO":"999"}];
